SENTINEL-2A             
1 40697U 15028A   20139.82296186 -.00000012  00000-0  12164-4 0  9991
2 40697  98.5693 214.4805 0001292  87.4769 272.6554 14.30815956256227
AVUM R/B                
1 40698U 15028B   20139.84119569  .00000617  00000-0  30912-4 0  9994
2 40698  98.6415  71.3118 0257281 114.6113 248.2144 14.97717255267845
